[{"OBJECT_NAME":"STARLINK-35988","OBJECT_ID":"2025-270AD","EPOCH":"2026-03-09T00:18:26.630208","MEAN_MOTION":15.27595554,"ECCENTRICITY":0.00016125,"INCLINATION":43.0062,"RA_OF_ASC_NODE":59.8859,"ARG_OF_PERICENTER":250.6408,"MEAN_ANOMALY":109.427,"EPHEMERIS_TYPE":0,"CLASSIFICATION_TYPE":"U","NORAD_CAT_ID":66615,"ELEMENT_SET_NO":999,"REV_AT_EPOCH":1744,"BSTAR":0.0015737105,"MEAN_MOTION_DOT":0.00043318,"MEAN_MOTION_DDOT":0},{"OBJECT_NAME":"OBJECT N","OBJECT_ID":"2019-093N","EPOCH":"2026-03-09T21:41:56.087232","MEAN_MOTION":15.29897693,"ECCENTRICITY":0.0006278,"INCLINATION":98.0505,"RA_OF_ASC_NODE":226.9456,"ARG_OF_PERICENTER":33.3806,"MEAN_ANOMALY":326.7828,"EPHEMERIS_TYPE":0,"CLASSIFICATION_TYPE":"U","NORAD_CAT_ID":44891,"ELEMENT_SET_NO":999,"REV_AT_EPOCH":33957,"BSTAR":0.0010567776,"MEAN_MOTION_DOT":0.00030617,"MEAN_MOTION_DDOT":0}]
